SAUDISAT 1C (SO-50)     
1 27607U 02058C   26199.78040280  .00000379  00000+0  62802-4 0  9993
2 27607  64.5520  31.2314 0074418 256.6189 102.6613 14.83102312269147
SAUDISAT 2              
1 28371U 04025F   26199.83195088  .00000089  00000+0  31034-4 0  9992
2 28371  98.5522 200.6338 0024295 196.7944 163.2451 14.56699343170356
SAUDISAT 3              
1 31118U 07012B   26199.81153753  .00000089  00000+0  22514-4 0  9998
2 31118  98.1469 150.2358 0015767 123.9606 236.3101 14.71441294 32390
PISAT                   
1 41784U 16059B   26199.74909159  .00000397  00000+0  75265-4 0  9993
2 41784  97.8193 198.8480 0030538 103.9796 256.4809 14.69032977524378
FLYING LAPTOP           
1 42831U 17042G   26199.84580237  .00002162  00000+0  17183-3 0  9999
2 42831  97.4827 354.1910 0019537  20.8806 339.3212 15.01328064491208
SALSAT                  
1 46495U 20068K   26199.01462697  .00004061  00000+0  14177-3 0  9999
2 46495  97.8861 203.9671 0009495 182.8082 177.3106 15.30195257320078
